ORBCOMM FM05            
1 25117U 97084F   25330.62046428  .00002066  00000+0  60673-3 0  9997
2 25117  45.0150 307.8067 0004335 307.2768  52.7688 14.46616763464129
ORBCOMM FM06            
1 25118U 97084G   25331.01973453  .00002279  00000+0  66300-3 0  9998
2 25118  45.0141 305.4322 0003243 305.7115 102.8288 14.46776747465105
ORBCOMM FM07            
1 25119U 97084H   25331.09196147  .00002122  00000+0  61997-3 0  9998
2 25119  45.0138 305.8369 0005165 308.4236  51.6151 14.46789117465101
ORBCOMM FM03            
1 25158U 98007B   25331.00210071  .00001347  00000+0  51315-3 0  9992
2 25158 107.9646 110.1437 0045636 321.1948  38.5918 14.34958908447397
ORBCOMM FM04            
1 25159U 98007C   25330.95849818  .00001412  00000+0  53392-3 0  9993
2 25159 107.9637 113.3852 0041555 318.3667  41.4312 14.35205331447573
ORBCOMM FM17            
1 25413U 98046A   25330.92980574  .00000898  00000+0  35802-3 0  9994
2 25413  44.9934 209.3422 0003303 325.7928  34.2706 14.35488053426552
ORBCOMM FM18            
1 25414U 98046B   25330.89998951  .00001477  00000+0  51914-3 0  9995
2 25414  44.9913 122.4592 0003665  32.6623 327.4452 14.39078093427683
ORBCOMM FM19            
1 25415U 98046C   25330.82640029  .00001556  00000+0  54637-3 0  9992
2 25415  44.9922 125.0579 0002451  29.3399 115.0153 14.38898920427624
